{
"type": "FeatureCollection",
"name": "cached_rivers",
"crs": { "type": "name", "properties": { "name": "urn:ogc:def:crs:OGC:1.3:CRS84" } },
"features": [
{ "type": "Feature", "properties": { "name": "Winooski River" }, "geometry": { "type": "LineString", "coordinates": [ [ -72.5272218, 44.238414 ], [ -72.5285146, 44.2386253 ], [ -72.5295178, 44.2387983 ], [ -72.530903, 44.2394055 ], [ -72.5315241, 44.2401896 ], [ -72.5325004, 44.2409736 ], [ -72.533584, 44.2413886 ], [ -72.535058, 44.241506 ], [ -72.5361379, 44.2417247 ], [ -72.5370448, 44.2417702 ], [ -72.5375931, 44.2417302 ], [ -72.5384764, 44.2418421 ], [ -72.5388917, 44.2419733 ], [ -72.5395026, 44.2422845 ], [ -72.5399958, 44.2424498 ], [ -72.540765, 44.242573 ], [ -72.5414799, 44.2425568 ], [ -72.5423387, 44.242457 ], [ -72.5428323, 44.2422956 ], [ -72.5439052, 44.2415193 ], [ -72.5449137, 44.241258 ], [ -72.5458256, 44.2413579 ], [ -72.5463982, 44.2416556 ], [ -72.5468598, 44.241821 ], [ -72.547274, 44.2416961 ], [ -72.5474672, 44.2415731 ], [ -72.547724, 44.2412537 ], [ -72.5479819, 44.2407188 ], [ -72.5481267, 44.2403979 ], [ -72.5483846, 44.2401678 ], [ -72.5486877, 44.2401094 ], [ -72.5492588, 44.2400973 ], [ -72.5496665, 44.2402972 ], [ -72.5498489, 44.240497 ], [ -72.550042, 44.2407968 ], [ -72.5504117, 44.241056 ], [ -72.5506429, 44.2413886 ], [ -72.550557, 44.2419728 ], [ -72.5505195, 44.2424109 ], [ -72.5506214, 44.242703 ], [ -72.55097, 44.2431718 ], [ -72.5510613, 44.2436714 ], [ -72.5508682, 44.2441863 ], [ -72.5497658, 44.2449722 ], [ -72.5492129, 44.2453566 ], [ -72.5490121, 44.2455313 ], [ -72.5484944, 44.2462384 ], [ -72.5484243, 44.2464037 ], [ -72.5484914, 44.2468092 ], [ -72.5486228, 44.2474951 ], [ -72.5487278, 44.247837 ], [ -72.5488937, 44.2480907 ], [ -72.5491163, 44.2483385 ], [ -72.5493098, 44.2485248 ], [ -72.5495723, 44.2487094 ], [ -72.5498193, 44.2488743 ], [ -72.5504497, 44.2492204 ], [ -72.5531534, 44.2501733 ], [ -72.5546554, 44.2505191 ], [ -72.555905, 44.2507252 ], [ -72.5569367, 44.2508285 ], [ -72.5586325, 44.2508042 ], [ -72.5604168, 44.2505652 ], [ -72.5617365, 44.2504039 ], [ -72.5627986, 44.2500888 ], [ -72.5630254, 44.2500113 ], [ -72.5637213, 44.2497737 ], [ -72.5651081, 44.2497116 ], [ -72.5656096, 44.2496892 ], [ -72.5665859, 44.2497967 ], [ -72.5676052, 44.2500657 ], [ -72.569826, 44.2510801 ], [ -72.5708023, 44.2516258 ], [ -72.5715059, 44.2521874 ], [ -72.571616, 44.2522752 ], [ -72.5739352, 44.2546996 ], [ -72.575427, 44.2561185 ], [ -72.5754521, 44.256435 ], [ -72.5770082, 44.2576346 ], [ -72.577224, 44.257746 ], [ -72.5781571, 44.2583913 ], [ -72.5781979, 44.2587357 ], [ -72.5782884, 44.2589327 ], [ -72.5786266, 44.2591158 ], [ -72.5788958, 44.2592951 ], [ -72.5794498, 44.2595407 ], [ -72.5800719, 44.2597208 ], [ -72.5804583, 44.2598326 ], [ -72.5806497, 44.2599096 ], [ -72.5816814, 44.2603244 ], [ -72.5844356, 44.261356 ], [ -72.5852863, 44.2616556 ], [ -72.5857517, 44.2617826 ], [ -72.5860932, 44.2618593 ], [ -72.586512, 44.2619034 ], [ -72.5869775, 44.2618836 ], [ -72.5874719, 44.2618439 ], [ -72.5880191, 44.2617498 ], [ -72.5886521, 44.2615308 ], [ -72.5893924, 44.2611351 ], [ -72.5913289, 44.2598558 ], [ -72.5917608, 44.2595158 ], [ -72.5919297, 44.2593429 ], [ -72.5920075, 44.2592238 ], [ -72.5923026, 44.2587205 ], [ -72.592552, 44.2579502 ], [ -72.5926083, 44.2576428 ], [ -72.5927317, 44.2572067 ], [ -72.5928631, 44.2568744 ], [ -72.5930563, 44.256544 ], [ -72.5933996, 44.2561809 ], [ -72.5936437, 44.2560406 ], [ -72.5939924, 44.2559484 ], [ -72.5944081, 44.2559138 ], [ -72.5950894, 44.2559177 ], [ -72.5955829, 44.2559792 ], [ -72.596409, 44.2561079 ], [ -72.5968999, 44.2561674 ], [ -72.5973129, 44.2561886 ], [ -72.5977528, 44.2561713 ], [ -72.5983027, 44.2561943 ], [ -72.5988525, 44.2562616 ], [ -72.5992495, 44.2562846 ], [ -72.6005856, 44.256298 ], [ -72.6011095, 44.2565779 ], [ -72.6012615, 44.2566591 ], [ -72.6020829, 44.2572523 ], [ -72.602549, 44.2575889 ], [ -72.6044372, 44.2579578 ], [ -72.6076988, 44.2581729 ], [ -72.6107029, 44.2580807 ], [ -72.6140932, 44.2586647 ], [ -72.6142164, 44.2587007 ], [ -72.6161961, 44.2592794 ], [ -72.6170643, 44.2598478 ], [ -72.6176552, 44.2602937 ], [ -72.6183767, 44.2606184 ], [ -72.6205478, 44.2613405 ], [ -72.6226807, 44.262329 ], [ -72.6247791, 44.2630598 ], [ -72.6250985, 44.2632504 ], [ -72.6263272, 44.2639836 ], [ -72.6268391, 44.2642891 ], [ -72.628899, 44.2653033 ], [ -72.629414, 44.2662252 ], [ -72.6305727, 44.2676389 ], [ -72.6321606, 44.2694212 ], [ -72.632957, 44.2699307 ], [ -72.6342634, 44.2704968 ], [ -72.6379845, 44.2717436 ], [ -72.6409582, 44.27274 ], [ -72.6446918, 44.2739077 ], [ -72.6467947, 44.2740306 ], [ -72.6488117, 44.2745222 ], [ -72.6507858, 44.2750753 ], [ -72.6522449, 44.2758128 ], [ -72.6534466, 44.2758742 ], [ -72.6550774, 44.2751061 ], [ -72.6570085, 44.2751982 ], [ -72.6593689, 44.2751982 ], [ -72.6602823, 44.2756862 ], [ -72.6607404, 44.2761225 ], [ -72.6606993, 44.2774106 ], [ -72.660313, 44.2786089 ], [ -72.6603559, 44.2800837 ], [ -72.6616863, 44.2823572 ], [ -72.6634029, 44.2831868 ], [ -72.6641231, 44.2835204 ], [ -72.6648621, 44.2838627 ], [ -72.6657847, 44.2847997 ], [ -72.6667875, 44.2854853 ], [ -72.6671147, 44.2857656 ], [ -72.6675707, 44.2859461 ], [ -72.6681179, 44.2860958 ], [ -72.668939, 44.2863051 ], [ -72.6693839, 44.2865567 ], [ -72.6696307, 44.2866796 ], [ -72.6697329, 44.286858 ], [ -72.6697755, 44.2871135 ], [ -72.6697004, 44.2873439 ], [ -72.6694804, 44.2878431 ], [ -72.6693678, 44.2880581 ], [ -72.6693249, 44.2883807 ], [ -72.6693467, 44.2888549 ], [ -72.6694965, 44.2892332 ], [ -72.6697272, 44.2895097 ], [ -72.6700763, 44.289715 ], [ -72.6705265, 44.2898553 ], [ -72.671063, 44.2899282 ], [ -72.671514, 44.2898763 ], [ -72.6719481, 44.289717 ], [ -72.6726079, 44.2897093 ], [ -72.6728118, 44.2898092 ], [ -72.6730428, 44.2900222 ], [ -72.673198, 44.2903621 ], [ -72.6735413, 44.2906079 ], [ -72.6736111, 44.2907192 ], [ -72.6739973, 44.2910879 ], [ -72.6742981, 44.2913508 ], [ -72.6749682, 44.291349 ], [ -72.6755422, 44.2914181 ], [ -72.6759714, 44.2914872 ], [ -72.6761489, 44.2915832 ], [ -72.6763442, 44.291635 ], [ -72.6766151, 44.2916197 ], [ -72.6770604, 44.2914488 ], [ -72.677801, 44.2909745 ], [ -72.6781279, 44.2908421 ], [ -72.6784984, 44.2908266 ], [ -72.6789942, 44.2909535 ], [ -72.6792544, 44.2910149 ], [ -72.6795682, 44.2911589 ], [ -72.6799437, 44.2912472 ], [ -72.6803846, 44.2913158 ], [ -72.6807417, 44.2913442 ], [ -72.6808329, 44.291373 ] ] } },
{ "type": "Feature", "properties": { "name": "Winooski River North Branch" }, "geometry": { "type": "LineString", "coordinates": [ [ -72.571382, 44.2768239 ], [ -72.5711936, 44.2765128 ], [ -72.5711533, 44.2763736 ], [ -72.5711761, 44.27622 ], [ -72.5713022, 44.2760251 ], [ -72.5714578, 44.2758849 ], [ -72.5716737, 44.2757389 ], [ -72.5718252, 44.2755958 ], [ -72.5719406, 44.2753529 ], [ -72.5719392, 44.2751128 ], [ -72.5719231, 44.2746673 ], [ -72.5718427, 44.2743629 ], [ -72.5717847, 44.2742713 ], [ -72.5717703, 44.2742486 ], [ -72.57166, 44.2741549 ], [ -72.5714873, 44.274094 ], [ -72.5712807, 44.274022 ], [ -72.5711346, 44.2739298 ], [ -72.5710005, 44.2738012 ], [ -72.5708596, 44.2735275 ], [ -72.5707242, 44.2731674 ], [ -72.5706209, 44.2728707 ], [ -72.5705901, 44.2726066 ], [ -72.5706451, 44.2723493 ], [ -72.5707564, 44.2720487 ], [ -72.5707926, 44.2718317 ], [ -72.570751, 44.2716329 ], [ -72.5706317, 44.2714235 ], [ -72.5704989, 44.2712805 ], [ -72.5702602, 44.2711316 ], [ -72.5699732, 44.2709482 ], [ -72.5697948, 44.2707561 ], [ -72.5696822, 44.2705698 ], [ -72.5696138, 44.2703893 ], [ -72.5695185, 44.269937 ], [ -72.5694367, 44.2697353 ], [ -72.5692892, 44.2695442 ], [ -72.5690626, 44.2693599 ], [ -72.5688051, 44.2692245 ], [ -72.5687018, 44.2691236 ], [ -72.5686803, 44.2690113 ], [ -72.5687233, 44.2688739 ], [ -72.5687836, 44.2687347 ], [ -72.5688963, 44.2682708 ], [ -72.5688775, 44.2680327 ], [ -72.5687541, 44.2677945 ], [ -72.5686382, 44.2676519 ], [ -72.5683679, 44.2674181 ], [ -72.5682378, 44.2672462 ], [ -72.5681949, 44.2671088 ], [ -72.5682029, 44.266983 ], [ -72.5683303, 44.2666853 ], [ -72.5684269, 44.266403 ], [ -72.5684765, 44.2661638 ], [ -72.5685489, 44.2659506 ], [ -72.5685694, 44.2659107 ], [ -72.5686844, 44.2656875 ], [ -72.5687957, 44.2655492 ], [ -72.56908, 44.2652332 ], [ -72.5696942, 44.2647866 ], [ -72.5701368, 44.2644447 ], [ -72.5704546, 44.2641816 ], [ -72.5711869, 44.2636534 ], [ -72.5718333, 44.263257 ], [ -72.5720344, 44.2631539 ], [ -72.5722584, 44.2630867 ], [ -72.5727332, 44.2629839 ], [ -72.5731556, 44.262911 ], [ -72.57333, 44.2628668 ], [ -72.5734989, 44.2628082 ], [ -72.5736579, 44.2627069 ], [ -72.5738879, 44.2624913 ], [ -72.574148, 44.2622377 ], [ -72.5743452, 44.26206 ], [ -72.5745016, 44.2619331 ], [ -72.5747757, 44.2617632 ], [ -72.5750358, 44.2615683 ], [ -72.5752839, 44.2613915 ], [ -72.5757989, 44.2611053 ], [ -72.5760645, 44.260919 ], [ -72.5763354, 44.2606875 ], [ -72.5764836, 44.26051 ], [ -72.5767659, 44.2600258 ], [ -72.5769174, 44.2598298 ], [ -72.5770488, 44.2596685 ], [ -72.577195, 44.2595484 ], [ -72.5773747, 44.2594543 ], [ -72.577655, 44.2593477 ], [ -72.5778548, 44.2593025 ], [ -72.5780506, 44.2592651 ], [ -72.5782264, 44.2592205 ], [ -72.5786266, 44.2591158 ] ] } }
]
}
